RSP-03                  
1 65732U 98067XL  26038.66413189  .00855179  35989-3  15498-2 0  9991
2 65732  51.6154 201.5272 0006926 291.4778  68.5493 16.00896236 22164
YOTSUBA-KULOVER         
1 65941U 98067XN  26038.69502219  .00151411  00000+0  11833-2 0  9998
2 65941  51.6243 211.6061 0004082 248.1665 111.8898 15.70633973 18774
BOTAN                   
1 65942U 98067XP  26038.70476492  .00380908  00000+0  16065-2 0  9991
2 65942  51.6182 207.8745 0006173 271.0570  88.9726 15.83838919 18827
E-KAGAKU-1              
1 65943U 98067XQ  26038.69575537  .00150314  00000+0  11799-2 0  9995
2 65943  51.6270 211.6229 0003445 263.6947  96.3658 15.70535446 18776
HRC MONOBLOCK CAMERA    
1 66052U 98067XR  26038.73144014  .00056667  00000+0  71236-3 0  9993
2 66052  51.6278 216.3622 0000806 355.3038   4.7947 15.59116661 17711
HTV-X1                  
1 66174U 25241A   26038.89006357  .00010998  00000+0  21100-3 0  9998
2 66174  51.6314 219.6672 0011023  75.1924 285.0284 15.48470326   519
SZ-21 MODULE            
1 66515U 25246C   26038.04255016  .00039980  00000+0  37769-3 0  9997
2 66515  41.4765  31.6776 0002982 280.6957  79.3548 15.66234853 13261
SHENZHOU-22             
1 66645U 25272A   26038.88248752  .00021453  00000+0  26782-3 0  9990
2 66645  41.4682  29.3443 0004985  25.4751 334.6332 15.59337422267649
SOYUZ-MS 28             
1 66664U 25275A   26038.89006357  .00010998  00000+0  21100-3 0  9999
2 66664  51.6314 219.6672 0011023  75.1924 285.0284 15.48470326  1288
DUPLEX                  
1 66906U 98067XS  26038.83399316  .00038207  00000+0  58166-3 0  9996
2 66906  51.6285 218.5459 0001407  79.0255 281.0894 15.54126307 10489
ISS OBJECT XT           
1 66907U 98067XT  26038.50608215  .00139388  00000+0  15833-2 0  9997
2 66907  51.6269 218.6048 0002114 217.1792 142.9055 15.61360236 10454
ISS OBJECT XU           
1 66908U 98067XU  26038.69753201  .00125493  00000+0  14247-2 0  9994
2 66908  51.6264 217.6307 0001751 224.2792 135.8061 15.61430222 10486
