CCSDS_OMM_VERS = 2.0
CREATION_DATE  = 
ORIGINATOR     = 

OBJECT_NAME    = RSP-03
OBJECT_ID      = 1998-067XL
CENTER_NAME    = EARTH
REF_FRAME      = TEME
TIME_SYSTEM    = UTC
MEAN_ELEMENT_THEORY = SGP/SGP4

EPOCH          = 2026-02-07T15:56:20.995296
MEAN_MOTION    = 16.00896236
ECCENTRICITY   = .00069266
INCLINATION    = 51.6154
RA_OF_ASC_NODE = 201.5272
ARG_OF_PERICENTER = 291.4778
MEAN_ANOMALY   = 68.5493

EPHEMERIS_TYPE = 0
CLASSIFICATION_TYPE = U
NORAD_CAT_ID   = 65732
ELEMENT_SET_NO = 999
REV_AT_EPOCH   = 2216
BSTAR          = .15498441E-2
MEAN_MOTION_DOT = .855179E-2
MEAN_MOTION_DDOT = .3598863E-3

CCSDS_OMM_VERS = 2.0
CREATION_DATE  = 
ORIGINATOR     = 

OBJECT_NAME    = YOTSUBA-KULOVER
OBJECT_ID      = 1998-067XN
CENTER_NAME    = EARTH
REF_FRAME      = TEME
TIME_SYSTEM    = UTC
MEAN_ELEMENT_THEORY = SGP/SGP4

EPOCH          = 2026-02-07T16:40:49.917216
MEAN_MOTION    = 15.70633973
ECCENTRICITY   = .00040829
INCLINATION    = 51.6243
RA_OF_ASC_NODE = 211.6061
ARG_OF_PERICENTER = 248.1665
MEAN_ANOMALY   = 111.8898

EPHEMERIS_TYPE = 0
CLASSIFICATION_TYPE = U
NORAD_CAT_ID   = 65941
ELEMENT_SET_NO = 999
REV_AT_EPOCH   = 1877
BSTAR          = .11832919E-2
MEAN_MOTION_DOT = .151411E-2
MEAN_MOTION_DDOT = 0

CCSDS_OMM_VERS = 2.0
CREATION_DATE  = 
ORIGINATOR     = 

OBJECT_NAME    = BOTAN
OBJECT_ID      = 1998-067XP
CENTER_NAME    = EARTH
REF_FRAME      = TEME
TIME_SYSTEM    = UTC
MEAN_ELEMENT_THEORY = SGP/SGP4

EPOCH          = 2026-02-07T16:54:51.689088
MEAN_MOTION    = 15.83838919
ECCENTRICITY   = .00061739
INCLINATION    = 51.6182
RA_OF_ASC_NODE = 207.8745
ARG_OF_PERICENTER = 271.0570
MEAN_ANOMALY   = 88.9726

EPHEMERIS_TYPE = 0
CLASSIFICATION_TYPE = U
NORAD_CAT_ID   = 65942
ELEMENT_SET_NO = 999
REV_AT_EPOCH   = 1882
BSTAR          = .16065149E-2
MEAN_MOTION_DOT = .380908E-2
MEAN_MOTION_DDOT = 0

CCSDS_OMM_VERS = 2.0
CREATION_DATE  = 
ORIGINATOR     = 

OBJECT_NAME    = E-KAGAKU-1
OBJECT_ID      = 1998-067XQ
CENTER_NAME    = EARTH
REF_FRAME      = TEME
TIME_SYSTEM    = UTC
MEAN_ELEMENT_THEORY = SGP/SGP4

EPOCH          = 2026-02-07T16:41:53.263968
MEAN_MOTION    = 15.70535446
ECCENTRICITY   = .00034451
INCLINATION    = 51.6270
RA_OF_ASC_NODE = 211.6229
ARG_OF_PERICENTER = 263.6947
MEAN_ANOMALY   = 96.3658

EPHEMERIS_TYPE = 0
CLASSIFICATION_TYPE = U
NORAD_CAT_ID   = 65943
ELEMENT_SET_NO = 999
REV_AT_EPOCH   = 1877
BSTAR          = .11798753E-2
MEAN_MOTION_DOT = .150314E-2
MEAN_MOTION_DDOT = 0

CCSDS_OMM_VERS = 2.0
CREATION_DATE  = 
ORIGINATOR     = 

OBJECT_NAME    = HRC MONOBLOCK CAMERA
OBJECT_ID      = 1998-067XR
CENTER_NAME    = EARTH
REF_FRAME      = TEME
TIME_SYSTEM    = UTC
MEAN_ELEMENT_THEORY = SGP/SGP4

EPOCH          = 2026-02-07T17:33:16.428096
MEAN_MOTION    = 15.59116661
ECCENTRICITY   = .00008069
INCLINATION    = 51.6278
RA_OF_ASC_NODE = 216.3622
ARG_OF_PERICENTER = 355.3038
MEAN_ANOMALY   = 4.7947

EPHEMERIS_TYPE = 0
CLASSIFICATION_TYPE = U
NORAD_CAT_ID   = 66052
ELEMENT_SET_NO = 999
REV_AT_EPOCH   = 1771
BSTAR          = .7123644E-3
MEAN_MOTION_DOT = .56667E-3
MEAN_MOTION_DDOT = 0

CCSDS_OMM_VERS = 2.0
CREATION_DATE  = 
ORIGINATOR     = 

OBJECT_NAME    = HTV-X1
OBJECT_ID      = 2025-241A
CENTER_NAME    = EARTH
REF_FRAME      = TEME
TIME_SYSTEM    = UTC
MEAN_ELEMENT_THEORY = SGP/SGP4

EPOCH          = 2026-02-07T21:21:41.492448
MEAN_MOTION    = 15.48470326
ECCENTRICITY   = .00110233
INCLINATION    = 51.6314
RA_OF_ASC_NODE = 219.6672
ARG_OF_PERICENTER = 75.1924
MEAN_ANOMALY   = 285.0284

EPHEMERIS_TYPE = 0
CLASSIFICATION_TYPE = U
NORAD_CAT_ID   = 66174
ELEMENT_SET_NO = 999
REV_AT_EPOCH   = 51
BSTAR          = .21099807E-3
MEAN_MOTION_DOT = .10998E-3
MEAN_MOTION_DDOT = 0

CCSDS_OMM_VERS = 2.0
CREATION_DATE  = 
ORIGINATOR     = 

OBJECT_NAME    = SZ-21 MODULE
OBJECT_ID      = 2025-246C
CENTER_NAME    = EARTH
REF_FRAME      = TEME
TIME_SYSTEM    = UTC
MEAN_ELEMENT_THEORY = SGP/SGP4

EPOCH          = 2026-02-07T01:01:16.333824
MEAN_MOTION    = 15.66234853
ECCENTRICITY   = .00029827
INCLINATION    = 41.4765
RA_OF_ASC_NODE = 31.6776
ARG_OF_PERICENTER = 280.6957
MEAN_ANOMALY   = 79.3548

EPHEMERIS_TYPE = 0
CLASSIFICATION_TYPE = U
NORAD_CAT_ID   = 66515
ELEMENT_SET_NO = 999
REV_AT_EPOCH   = 1326
BSTAR          = .37768938E-3
MEAN_MOTION_DOT = .3998E-3
MEAN_MOTION_DDOT = 0

CCSDS_OMM_VERS = 2.0
CREATION_DATE  = 
ORIGINATOR     = 

OBJECT_NAME    = SHENZHOU-22
OBJECT_ID      = 2025-272A
CENTER_NAME    = EARTH
REF_FRAME      = TEME
TIME_SYSTEM    = UTC
MEAN_ELEMENT_THEORY = SGP/SGP4

EPOCH          = 2026-02-07T21:10:46.921728
MEAN_MOTION    = 15.59337422
ECCENTRICITY   = .00049858
INCLINATION    = 41.4682
RA_OF_ASC_NODE = 29.3443
ARG_OF_PERICENTER = 25.4751
MEAN_ANOMALY   = 334.6332

EPHEMERIS_TYPE = 0
CLASSIFICATION_TYPE = U
NORAD_CAT_ID   = 66645
ELEMENT_SET_NO = 999
REV_AT_EPOCH   = 26764
BSTAR          = .2678218E-3
MEAN_MOTION_DOT = .21453E-3
MEAN_MOTION_DDOT = 0

CCSDS_OMM_VERS = 2.0
CREATION_DATE  = 
ORIGINATOR     = 

OBJECT_NAME    = SOYUZ-MS 28
OBJECT_ID      = 2025-275A
CENTER_NAME    = EARTH
REF_FRAME      = TEME
TIME_SYSTEM    = UTC
MEAN_ELEMENT_THEORY = SGP/SGP4

EPOCH          = 2026-02-07T21:21:41.492448
MEAN_MOTION    = 15.48470326
ECCENTRICITY   = .00110233
INCLINATION    = 51.6314
RA_OF_ASC_NODE = 219.6672
ARG_OF_PERICENTER = 75.1924
MEAN_ANOMALY   = 285.0284

EPHEMERIS_TYPE = 0
CLASSIFICATION_TYPE = U
NORAD_CAT_ID   = 66664
ELEMENT_SET_NO = 999
REV_AT_EPOCH   = 128
BSTAR          = .21099807E-3
MEAN_MOTION_DOT = .10998E-3
MEAN_MOTION_DDOT = 0

CCSDS_OMM_VERS = 2.0
CREATION_DATE  = 
ORIGINATOR     = 

OBJECT_NAME    = DUPLEX
OBJECT_ID      = 1998-067XS
CENTER_NAME    = EARTH
REF_FRAME      = TEME
TIME_SYSTEM    = UTC
MEAN_ELEMENT_THEORY = SGP/SGP4

EPOCH          = 2026-02-07T20:00:57.009024
MEAN_MOTION    = 15.54126307
ECCENTRICITY   = .00014073
INCLINATION    = 51.6285
RA_OF_ASC_NODE = 218.5459
ARG_OF_PERICENTER = 79.0255
MEAN_ANOMALY   = 281.0894

EPHEMERIS_TYPE = 0
CLASSIFICATION_TYPE = U
NORAD_CAT_ID   = 66906
ELEMENT_SET_NO = 999
REV_AT_EPOCH   = 1048
BSTAR          = .58165529E-3
MEAN_MOTION_DOT = .38207E-3
MEAN_MOTION_DDOT = 0

CCSDS_OMM_VERS = 2.0
CREATION_DATE  = 
ORIGINATOR     = 

OBJECT_NAME    = ISS OBJECT XT
OBJECT_ID      = 1998-067XT
CENTER_NAME    = EARTH
REF_FRAME      = TEME
TIME_SYSTEM    = UTC
MEAN_ELEMENT_THEORY = SGP/SGP4

EPOCH          = 2026-02-07T12:08:45.497760
MEAN_MOTION    = 15.61360236
ECCENTRICITY   = .0002114
INCLINATION    = 51.6269
RA_OF_ASC_NODE = 218.6048
ARG_OF_PERICENTER = 217.1792
MEAN_ANOMALY   = 142.9055

EPHEMERIS_TYPE = 0
CLASSIFICATION_TYPE = U
NORAD_CAT_ID   = 66907
ELEMENT_SET_NO = 999
REV_AT_EPOCH   = 1045
BSTAR          = .15832915E-2
MEAN_MOTION_DOT = .139388E-2
MEAN_MOTION_DDOT = 0

CCSDS_OMM_VERS = 2.0
CREATION_DATE  = 
ORIGINATOR     = 

OBJECT_NAME    = ISS OBJECT XU
OBJECT_ID      = 1998-067XU
CENTER_NAME    = EARTH
REF_FRAME      = TEME
TIME_SYSTEM    = UTC
MEAN_ELEMENT_THEORY = SGP/SGP4

EPOCH          = 2026-02-07T16:44:26.765664
MEAN_MOTION    = 15.61430222
ECCENTRICITY   = .00017512
INCLINATION    = 51.6264
RA_OF_ASC_NODE = 217.6307
ARG_OF_PERICENTER = 224.2792
MEAN_ANOMALY   = 135.8061

EPHEMERIS_TYPE = 0
CLASSIFICATION_TYPE = U
NORAD_CAT_ID   = 66908
ELEMENT_SET_NO = 999
REV_AT_EPOCH   = 1048
BSTAR          = .14246946E-2
MEAN_MOTION_DOT = .125493E-2
MEAN_MOTION_DDOT = 0

